NORAD_CAT_ID,OBJECT_NAME,OBJECT_TYPE,EPOCH,MEAN_MOTION,ECCENTRICITY,INCLINATION,RA_OF_ASC_NODE,ARG_OF_PERICENTER,MEAN_ANOMALY,BSTAR,MEAN_MOTION_DOT,MEAN_MOTION_DDOT,TLE_LINE0,TLE_LINE1,TLE_LINE2,SEMIMAJOR_AXIS,PERIOD,APOGEE,PERIGEE,DECAYED
54796.0,STARLINK-5415,PAYLOAD,2024-02-19 10:50:57,15.08832313,0.0001378,53.2157,152.333,97.7648,262.35,-1.7155e-05,-5.61e-06,0.0,0 STARLINK-5415,1 54796U 22175AQ  24050.45205120 -.00000561  00000-0 -17155-4 0  9995,2 54796  53.2157 152.3330 0001378  97.7648 262.3500 15.08832313 64869,6917.904,95.438,540.722,538.816,0.0
54796.0,STARLINK-5415,PAYLOAD,2024-02-19 14:01:43,15.08836284,0.0001402,53.2164,151.7373,92.4948,267.6205,2.7565e-05,1.51e-06,0.0,0 STARLINK-5415,1 54796U 22175AQ  24050.58452996  .00000151  00000-0  27565-4 0  9993,2 54796  53.2164 151.7373 0001402  92.4948 267.6205 15.08836284 67044,6917.892,95.438,540.727,538.787,0.0
54796.0,STARLINK-5415,PAYLOAD,2024-02-19 15:37:06,15.08838896,0.0001445,53.2167,151.4404,96.5231,263.5926,6.7028e-05,7.79e-06,0.0,0 STARLINK-5415,1 54796U 22175AQ  24050.65076875  .00000779  00000-0  67028-4 0  9993,2 54796  53.2167 151.4404 0001445  96.5231 263.5926 15.08838896 67053,6917.884,95.438,540.748,538.749,0.0
54796.0,STARLINK-5415,PAYLOAD,2024-02-20 13:52:30,15.08836589,0.0001387,53.2155,147.277,69.6824,290.4317,4.5191e-05,4.31e-06,0.0,0 STARLINK-5415,1 54796U 22175AQ  24051.57813395  .00000431  00000-0  45191-4 0  9993,2 54796  53.2155 147.2770 0001387  69.6824 290.4317 15.08836589 67198,6917.891,95.438,540.715,538.796,0.0
54796.0,STARLINK-5415,PAYLOAD,2024-02-21 13:43:17,15.08849828,0.0001342,53.216,142.8147,76.5203,283.5939,0.00023397,3.439e-05,0.0,0 STARLINK-5415,1 54796U 22175AQ  24052.57172764  .00003439  00000-0  23397-3 0  9996,2 54796  53.2160 142.8147 0001342  76.5203 283.5939 15.08849828 65182,6917.85,95.437,540.644,538.787,0.0
54796.0,STARLINK-5415,PAYLOAD,2024-02-22 11:58:41,15.08841393,0.0001188,53.216,138.6513,87.5411,272.5717,6.2693e-05,7.1e-06,0.0,0 STARLINK-5415,1 54796U 22175AQ  24053.49909155  .00000710  00000-0  62693-4 0  9992,2 54796  53.2160 138.6513 0001188  87.5411 272.5717 15.08841393 65320,6917.876,95.437,540.563,538.919,0.0
54796.0,STARLINK-5415,PAYLOAD,2024-02-23 11:49:28,15.08851583,0.0001299,53.2169,134.1921,86.9649,273.1492,8.6451e-05,1.089e-05,0.0,0 STARLINK-5415,1 54796U 22175AQ  24054.49268548  .00001089  00000-0  86451-4 0  9995,2 54796  53.2169 134.1921 0001299  86.9649 273.1492 15.08851583 67637,6917.845,95.437,540.609,538.811,0.0
54796.0,STARLINK-5415,PAYLOAD,2024-02-23 15:00:14,15.08856435,0.0001314,53.2164,133.5965,87.5188,272.5955,0.00016461,2.334e-05,0.0,0 STARLINK-5415,1 54796U 22175AQ  24054.62516259  .00002334  00000-0  16461-3 0  9992,2 54796  53.2164 133.5965 0001314  87.5188 272.5955 15.08856435 65496,6917.83,95.437,540.604,538.786,0.0
54796.0,STARLINK-5415,PAYLOAD,2024-02-24 11:40:15,15.08838772,0.000153,53.2164,129.7312,96.5644,263.5522,9.8213e-05,1.275e-05,0.0,0 STARLINK-5415,1 54796U 22175AQ  24055.48629438  .00001275  00000-0  98213-4 0  9990,2 54796  53.2164 129.7312 0001530  96.5644 263.5522 15.08838772 65625,6917.884,95.438,540.808,538.691,0.0
54796.0,STARLINK-5415,PAYLOAD,2024-02-25 11:31:02,15.08851339,0.0001624,53.2165,125.2721,97.1654,262.9523,0.0003162,4.749e-05,0.0,0 STARLINK-5415,1 54796U 22175AQ  24056.47989021  .00004749  00000-0  31620-3 0  9994,2 54796  53.2165 125.2721 0001624  97.1654 262.9523 15.08851339 67937,6917.846,95.437,540.834,538.587,0.0
54796.0,STARLINK-5415,PAYLOAD,2024-02-25 21:03:21,15.08841245,0.0001613,53.2158,123.486,91.2652,268.8525,0.00013855,1.918e-05,0.0,0 STARLINK-5415,1 54796U 22175AQ  24056.87733357  .00001918  00000-0  13855-3 0  9992,2 54796  53.2158 123.4860 0001613  91.2652 268.8525 15.08841245 67992,6917.877,95.437,540.857,538.626,0.0
54796.0,STARLINK-5415,PAYLOAD,2024-02-26 11:21:50,15.08835582,0.0001938,53.2176,120.8131,104.838,255.2827,6.057e-05,6.76e-06,0.0,0 STARLINK-5415,1 54796U 22175AQ  24057.47349936  .00000676  00000-0  60570-4 0  9992,2 54796  53.2176 120.8131 0001938 104.8380 255.2827 15.08835582 65926,6917.894,95.438,541.1,538.418,0.0
54796.0,STARLINK-5415,PAYLOAD,2024-02-27 12:48:00,15.08845707,0.0001772,53.2165,116.0519,98.0521,262.0672,0.00022827,3.347e-05,0.0,0 STARLINK-5415,1 54796U 22175AQ  24058.53333700  .00003347  00000-0  22827-3 0  9992,2 54796  53.2165 116.0519 0001772  98.0521 262.0672 15.08845707 68240,6917.863,95.437,540.954,538.502,0.0
54796.0,STARLINK-5415,PAYLOAD,2024-02-27 20:44:56,15.08839301,0.000189,53.2158,114.5643,94.752,265.3688,0.00018315,2.628e-05,0.0,0 STARLINK-5415,1 54796U 22175AQ  24058.86454002  .00002628  00000-0  18315-3 0  9995,2 54796  53.2158 114.5643 0001890  94.7520 265.3688 15.08839301 68297,6917.883,95.438,541.055,538.44,0.0
54796.0,STARLINK-5415,PAYLOAD,2024-02-28 03:06:29,15.08830053,0.0001496,53.2168,113.376,95.5041,264.6122,2.1205e-06,-2.54e-06,0.0,0 STARLINK-5415,1 54796U 22175AQ  24059.12950452 -.00000254  00000-0  21205-5 0  9993,2 54796  53.2168 113.3760 0001496  95.5041 264.6122 15.08830053 66179,6917.911,95.438,540.811,538.741,0.0
54796.0,STARLINK-5415,PAYLOAD,2024-02-28 11:03:24,15.08834816,0.0001729,53.2157,111.8891,87.4738,272.6452,4.8629e-05,4.86e-06,0.0,0 STARLINK-5415,1 54796U 22175AQ  24059.46070430  .00000486  00000-0  48629-4 0  9993,2 54796  53.2157 111.8891 0001729  87.4738 272.6452 15.08834816 68388,6917.896,95.438,540.957,538.565,0.0
54796.0,STARLINK-5415,PAYLOAD,2024-02-28 20:35:43,15.08842198,0.0001688,53.2156,110.1041,87.7678,272.3508,0.00017458,2.492e-05,0.0,0 STARLINK-5415,1 54796U 22175AQ  24059.85814191  .00002492  00000-0  17458-3 0  9990,2 54796  53.2156 110.1041 0001688  87.7678 272.3508 15.08842198 68444,6917.874,95.437,540.906,538.571,0.0
54796.0,STARLINK-5415,PAYLOAD,2024-02-29 12:29:34,15.08856357,0.000155,53.2145,107.1285,91.6668,268.4501,0.00050373,7.742e-05,0.0,0 STARLINK-5415,1 54796U 22175AQ  24060.52053628  .00007742  00000-0  50373-3 0  9992,2 54796  53.2145 107.1285 0001550  91.6668 268.4501 15.08856357 68541,6917.83,95.437,540.768,538.623,0.0
54796.0,STARLINK-5415,PAYLOAD,2024-02-29 20:26:30,15.08845815,0.0001659,53.2155,105.6418,94.6503,265.4679,0.00023449,3.446e-05,0.0,0 STARLINK-5415,1 54796U 22175AQ  24060.85173853  .00003446  00000-0  23449-3 0  9992,2 54796  53.2155 105.6418 0001659  94.6503 265.4679 15.08845815 68599,6917.863,95.437,540.875,538.58,0.0
54796.0,STARLINK-5415,PAYLOAD,2024-03-01 09:09:35,15.08847859,0.0001623,53.2141,103.2638,91.4664,268.6514,0.00024365,3.593e-05,0.0,0 STARLINK-5415,1 54796U 22175AQ  24061.38165806  .00003593  00000-0  24365-3 0  9991,2 54796  53.2141 103.2638 0001623  91.4664 268.6514 15.08847859 68678,6917.856,95.437,540.844,538.599,0.0
54796.0,STARLINK-5415,PAYLOAD,2024-03-02 09:00:21,15.08851235,0.0001616,53.2161,98.8017,97.6018,262.5158,0.00022651,3.32e-05,0.0,0 STARLINK-5415,1 54796U 22175AQ  24062.37525438  .00003320  00000-0  22651-3 0  9996,2 54796  53.2161  98.8017 0001616  97.6018 262.5158 15.08851235 66660,6917.846,95.437,540.829,538.593,0.0
54796.0,STARLINK-5415,PAYLOAD,2024-03-03 08:51:09,15.08836153,0.0001569,53.217,94.3427,87.3046,272.8126,6.2521e-05,7.07e-06,0.0,0 STARLINK-5415,1 54796U 22175AQ  24063.36886186  .00000707  00000-0  62521-4 0  9993,2 54796  53.2170  94.3427 0001569  87.3046 272.8126 15.08836153 66818,6917.892,95.438,540.843,538.672,0.0
54796.0,STARLINK-5415,PAYLOAD,2024-03-04 08:41:56,15.0884648,0.0001708,53.2163,89.8813,86.6909,273.4278,0.00079877,0.0001245,0.0,0 STARLINK-5415,1 54796U 22175AQ  24064.36246013  .00012450  00000-0  79877-3 0  9992,2 54796  53.2163  89.8813 0001708  86.6909 273.4278 15.08846480 66968,6917.861,95.437,540.907,538.544,0.0
54796.0,STARLINK-5415,PAYLOAD,2024-03-05 02:11:11,15.08830563,0.0001559,53.2155,86.6103,80.1855,279.9313,-4.5695e-05,-1.015e-05,0.0,0 STARLINK-5415,1 54796U 22175AQ  24065.09110606 -.00001015  00000-0 -45695-4 0  9990,2 54796  53.2155  86.6103 0001559  80.1855 279.9313 15.08830563 67078,6917.909,95.438,540.853,538.696,0.0
54796.0,STARLINK-5415,PAYLOAD,2024-03-05 11:43:30,15.0883182,0.0001587,53.2165,84.8276,87.6483,272.4691,-6.6636e-06,-3.94e-06,0.0,0 STARLINK-5415,1 54796U 22175AQ  24065.48854673 -.00000394  00000-0 -66636-5 0  9990,2 54796  53.2165  84.8276 0001587  87.6483 272.4691 15.08831820 69290,6917.905,95.438,540.868,538.673,0.0
54796.0,STARLINK-5415,PAYLOAD,2024-03-06 09:58:54,15.08843826,0.0001569,53.2156,80.6638,101.1773,258.9396,0.00060527,9.359e-05,0.0,0 STARLINK-5415,1 54796U 22175AQ  24066.41590955  .00009359  00000-0  60527-3 0  9993,2 54796  53.2156  80.6638 0001569 101.1773 258.9396 15.08843826 67276,6917.869,95.437,540.819,538.648,0.0
54796.0,STARLINK-5415,PAYLOAD,2024-03-07 09:49:41,15.08848272,0.0001525,53.2155,76.2027,98.2538,261.8627,0.00038198,5.798e-05,0.0,0 STARLINK-5415,1 54796U 22175AQ  24067.40950887  .00005798  00000-0  38198-3 0  9999,2 54796  53.2155  76.2027 0001525  98.2538 261.8627 15.08848272 69581,6917.855,95.437,540.775,538.665,0.0
54796.0,STARLINK-5415,PAYLOAD,2024-03-08 09:40:28,15.08846968,0.0001567,53.216,71.738,103.5824,256.5343,0.00020866,3.035e-05,0.0,0 STARLINK-5415,1 54796U 22175AQ  24068.40310825  .00003035  00000-0  20866-3 0  9997,2 54796  53.2160  71.7380 0001567 103.5824 256.5343 15.08846968 67576,6917.859,95.437,540.808,538.64,0.0
54796.0,STARLINK-5415,PAYLOAD,2024-03-08 17:37:24,15.08845396,0.000159,53.2153,70.2514,101.6004,258.5167,0.00019558,2.826e-05,0.0,0 STARLINK-5415,1 54796U 22175AQ  24068.73430912  .00002826  00000-0  19558-3 0  9996,2 54796  53.2153  70.2514 0001590 101.6004 258.5167 15.08845396 69781,6917.864,95.437,540.829,538.629,0.0
54796.0,STARLINK-5415,PAYLOAD,2024-03-09 03:09:43,15.0884604,0.0001691,53.2154,68.4689,100.0914,260.0269,0.00017105,2.436e-05,0.0,0 STARLINK-5415,1 54796U 22175AQ  24069.13174927  .00002436  00000-0  17105-3 0  9995,2 54796  53.2154  68.4689 0001691 100.0914 260.0269 15.08846040 67684,6917.862,95.437,540.897,538.557,0.0
